ONEWEB-0228             
1 48780U 21045P   24125.80194093  .00000018  00000+0  13830-4 0  9994
2 48780  87.9048  53.0798 0001826  82.2559 277.8779 13.15549701143770
ONEWEB-0232             
1 48781U 21045Q   24125.18635936  .00000084  00000+0  18790-3 0  9994
2 48781  87.9040  53.2258 0001828  83.2337 276.9001 13.15549224144008
ONEWEB-0231             
1 48782U 21045R   24125.54445454  .00000046  00000+0  88516-4 0  9991
2 48782  87.9054  53.1777 0001836  89.0817 271.0523 13.15550598143768
ONEWEB-0234             
1 48783U 21045S   24125.86849543  .00000222  00000+0  55487-3 0  9990
2 48783  87.9053  53.0757 0003216  69.8350 290.3126 13.15547751143936
ONEWEB-0238             
1 48784U 21045T   24125.82253647 -.00000045  00000+0 -15490-3 0  9996
2 48784  87.9048  53.1029 0002066  77.1423 282.9938 13.15549844143820
ONEWEB-0240             
1 48785U 21045U   24125.83204046 -.00000424  00000+0 -11608-2 0  9994
2 48785  87.9044  53.0688 0002233  91.8498 268.2888 13.15556055143843
ONEWEB-0246             
1 48786U 21045V   24125.21804076 -.00000040  00000+0 -13990-3 0  9997
2 48786  87.9048  53.1948 0001758  82.0205 278.1125 13.15550640143632
